GPS BIIA-10 (PRN 32)    
1 20959U 90103A   15362.27874048  .00000039  00000-0  00000+0 0  9996
2 20959  54.2502 186.3820 0113238  10.4436 349.8066  2.00567389183737
GPS BIIR-2  (PRN 13)    
1 24876U 97035A   15362.09421245  .00000001  00000-0  00000+0 0  9995
2 24876  55.7192 248.2828 0044546 115.9251 244.6163  2.00562257135058
GPS BIIR-3  (PRN 11)    
1 25933U 99055A   15362.29717477 -.00000034  00000-0  00000+0 0  9998
2 25933  51.2893 101.2224 0160413  85.4117 345.0019  2.00566058118874
GPS BIIR-4  (PRN 20)    
1 26360U 00025A   15362.50837123  .00000037  00000-0  00000+0 0  9999
2 26360  53.0707 177.2718 0047959  73.9561 253.2720  2.00562390114575
GPS BIIR-5  (PRN 28)    
1 26407U 00040A   15362.41574991 -.00000083  00000-0  00000+0 0  9991
2 26407  56.6950   6.0629 0202333 266.3284 270.5482  2.00560904113244
GPS BIIR-6  (PRN 14)    
1 26605U 00071A   15362.47775812 -.00000001  00000-0  00000+0 0  9996
2 26605  55.2885 246.2018 0085270 248.9964 268.2791  2.00560049110846
GPS BIIR-7  (PRN 18)    
1 26690U 01004A   15362.31664866  .00000036  00000-0  00000+0 0  9993
2 26690  52.9998 180.2609 0166523 250.0935 244.4999  2.00565487109244
GPS BIIR-8  (PRN 16)    
1 27663U 03005A   15362.22844834 -.00000083  00000-0  00000+0 0  9995
2 27663  56.7713   5.7767 0082648  16.3388 150.1201  2.00563428 94603
GPS BIIR-9  (PRN 21)    
1 27704U 03010A   15362.16338025 -.00000009  00000-0  00000+0 0  9998
2 27704  53.5905 120.5389 0230899 254.2357 185.1784  2.00560199 93408
GPS BIIR-10 (PRN 22)    
1 28129U 03058A   15361.19419768  .00000035  00000-0  00000+0 0  9996
2 28129  52.8761 180.3538 0076998 244.4858 114.7249  2.00395184 88090
GPS BIIR-11 (PRN 19)    
1 28190U 04009A   15362.43347009 -.00000058  00000-0  00000+0 0  9993
2 28190  55.6836  67.2260 0111362  37.2931 100.9077  2.00387588 86286
GPS BIIR-12 (PRN 23)    
1 28361U 04023A   15362.26189964  .00000004  00000-0  00000+0 0  9994
2 28361  54.2544 241.8718 0105070 211.0293  43.5465  2.00554094 84365
GPS BIIR-13 (PRN 02)    
1 28474U 04045A   15362.48444748 -.00000007  00000-0  00000+0 0  9995
2 28474  53.9834 119.7769 0153652 234.7816 183.2094  2.00561027 81731
GPS BIIRM-1 (PRN 17)    
1 28874U 05038A   15362.19079148 -.00000059  00000-0  00000+0 0  9995
2 28874  55.8513  64.4228 0110608 247.3074  64.8189  2.00570764 75130
GPS BIIRM-2 (PRN 31)    
1 29486U 06042A   15362.50863921 -.00000064  00000-0  00000+0 0  9992
2 29486  55.7457 303.7180 0084418 331.7489 132.2275  2.00564912 67853
GPS BIIRM-3 (PRN 12)    
1 29601U 06052A   15362.30723415 -.00000083  00000-0  00000+0 0  9994
2 29601  56.7414   4.6996 0055180  34.5439 325.8353  2.00578117 66763
GPS BIIRM-4 (PRN 15)    
1 32260U 07047A   15362.13060687  .00000007  00000-0  00000+0 0  9995
2 32260  53.3843 238.6979 0078408  24.8010 335.6593  2.00551422 60143
GPS BIIRM-5 (PRN 29)    
1 32384U 07062A   15362.52960515 -.00000060  00000-0  00000+0 0  9991
2 32384  55.9040  64.9573 0010938 315.6430 107.7570  2.00567870 58883
GPS BIIRM-6 (PRN 07)    
1 32711U 08012A   15362.04031829 -.00000064  00000-0  00000+0 0  9999
2 32711  55.4680 303.2392 0091248 207.8707 151.6458  2.00562642 57066
GPS BIIRM-8 (PRN 05)    
1 35752U 09043A   15362.49612285  .00000040  00000-0  00000+0 0  9995
2 35752  54.2249 181.2740 0044775  25.2229 333.7095  2.00559736 46649
GPS BIIF-1  (PRN 25)    
1 36585U 10022A   15362.50682250 -.00000085  00000-0  00000+0 0  9990
2 36585  56.0737   1.8772 0047281  37.6430  74.4610  2.00574936 40896
GPS BIIF-2  (PRN 01)    
1 37753U 11036A   15362.29732524 -.00000004  00000-0  00000+0 0  9991
2 37753  55.2032 122.2047 0048144  25.5943  19.7927  2.00565569 32571
GPS BIIF-3  (PRN 24)    
1 38833U 12053A   15362.22358066 -.00000064  00000-0  00000+0 0  9995
2 38833  54.5008 300.6791 0039316  15.2150 344.9123  2.00567219 23655
GPS BIIF-4  (PRN 27)    
1 39166U 13023A   15362.08251584 -.00000062  00000-0  00000+0 0  9992
2 39166  55.5609  61.6180 0028713   8.9410 351.1665  2.00559259 19174
GPS BIIF-5  (PRN 30)    
1 39533U 14008A   15361.58261761 -.00000069  00000-0  00000+0 0  9993
2 39533  54.6539 305.9107 0016538 186.1249 173.8567  2.00565485 13530
GPS BIIF-6  (PRN 06)    
1 39741U 14026A   15361.36110420 -.00000012  00000-0  00000+0 0  9993
2 39741  55.1944 121.7574 0003717 235.5101 124.4215  2.00571328 11803
GPS BIIF-7  (PRN 09)    
1 40105U 14045A   15361.95319072  .00000008  00000-0  00000+0 0  9993
2 40105  54.7719 241.5041 0003305 124.4533 235.6633  2.00564105 10265
GPS BIIF-8  (PRN 03)    
1 40294U 14068A   15361.81710918  .00000039  00000-0  00000+0 0  9990
2 40294  54.9622 181.8670 0003602 204.6527 155.3405  2.00548765  8487
GPS BIIF-9  (PRN 26)    
1 40534U 15013A   15361.95944983 -.00000087  00000-0  00000+0 0  9998
2 40534  55.0446   1.5367 0007092 325.3506  34.6204  2.00562403  5552
GPS BIIF-10  (PRN 08)   
1 40730U 15033A   15361.62133298 -.00000061  00000-0  00000+0 0  9993
2 40730  55.0975  61.5510 0019067 271.5371  88.2998  2.00569412  3303
GPS BIIF-11  (PRN 10)   
1 41019U 15062A   15362.17157155  .00000040  00000-0  00000+0 0  9991
2 41019  54.9775 181.6157 0010055 203.5220 156.4413  2.00562023  1137
